{
    "week": 287,
    "satellites": [
        {
            "Name": "COSMOS 2545 (760)",
            "Line1": "1 45358U 20018A   24280.27076338 -.00000049  00000+0  00000+0 0  9990",
            "Line2": "2 45358  64.6954 334.0902 0011814 241.7681 118.1867  2.13102617 35470",
            "SatelliteNumber": "45358",
            "Classification": "U",
            "LaunchYear": "20",
            "LaunchNumber": "018",
            "PieceOfLaunch": "A",
            "EpochYear": "24",
            "EpochDay": 280.27076338,
            "FirstDerivativeMeanMotion": -4.9e-07,
            "SecondDerivativeMeanMotion": "00000+0",
            "BSTAR": "00000+0",
            "SetNumber": "999",
            "Inclination": 64.6954,
            "RAAN": 334.0902,
            "Eccentricity": 0.0011814,
            "ArgumentOfPerigee": 241.7681,
            "MeanAnomaly": 118.1867,
            "MeanMotion": 2.13102617,
            "RevolutionNumber": "3547"
        },
        {
            "Name": "COSMOS 2547 (705K)",
            "Line1": "1 46805U 20075A   24281.39587341  .00000034  00000+0  00000+0 0  9999",
            "Line2": "2 46805  64.5988 213.1140 0007698 239.9152 120.0237  2.13102851 30740",
            "SatelliteNumber": "46805",
            "Classification": "U",
            "LaunchYear": "20",
            "LaunchNumber": "075",
            "PieceOfLaunch": "A",
            "EpochYear": "24",
            "EpochDay": 281.39587341,
            "FirstDerivativeMeanMotion": 3.4e-07,
            "SecondDerivativeMeanMotion": "00000+0",
            "BSTAR": "00000+0",
            "SetNumber": "999",
            "Inclination": 64.5988,
            "RAAN": 213.114,
            "Eccentricity": 0.0007698,
            "ArgumentOfPerigee": 239.9152,
            "MeanAnomaly": 120.0237,
            "MeanMotion": 2.13102851,
            "RevolutionNumber": "3074"
        },
        {
            "Name": "COSMOS 2557 (706K)",
            "Line1": "1 52984U 22075A   24281.56168353 -.00000048  00000+0  00000+0 0  9999",
            "Line2": "2 52984  64.6245 336.1649 0013303 273.7539  86.1662  2.13102244 17551",
            "SatelliteNumber": "52984",
            "Classification": "U",
            "LaunchYear": "22",
            "LaunchNumber": "075",
            "PieceOfLaunch": "A",
            "EpochYear": "24",
            "EpochDay": 281.56168353,
            "FirstDerivativeMeanMotion": -4.8e-07,
            "SecondDerivativeMeanMotion": "00000+0",
            "BSTAR": "00000+0",
            "SetNumber": "999",
            "Inclination": 64.6245,
            "RAAN": 336.1649,
            "Eccentricity": 0.0013303,
            "ArgumentOfPerigee": 273.7539,
            "MeanAnomaly": 86.1662,
            "MeanMotion": 2.13102244,
            "RevolutionNumber": "1755"
        },
        {
            "Name": "COSMOS 2559 (707K)",
            "Line1": "1 54031U 22130A   24281.50494198 -.00000048  00000+0  00000+0 0  9999",
            "Line2": "2 54031  64.5967 336.2806 0008247 225.0583 134.9469  2.13101522 15522",
            "SatelliteNumber": "54031",
            "Classification": "U",
            "LaunchYear": "22",
            "LaunchNumber": "130",
            "PieceOfLaunch": "A",
            "EpochYear": "24",
            "EpochDay": 281.50494198,
            "FirstDerivativeMeanMotion": -4.8e-07,
            "SecondDerivativeMeanMotion": "00000+0",
            "BSTAR": "00000+0",
            "SetNumber": "999",
            "Inclination": 64.5967,
            "RAAN": 336.2806,
            "Eccentricity": 0.0008247,
            "ArgumentOfPerigee": 225.0583,
            "MeanAnomaly": 134.9469,
            "MeanMotion": 2.13101522,
            "RevolutionNumber": "1552"
        },
        {
            "Name": "COSMOS 2564 (761)",
            "Line1": "1 54377U 22161A   24281.22602243  .00000034  00000+0  00000+0 0  9991",
            "Line2": "2 54377  64.7403 213.2446 0009942 220.5771 139.3632  2.13102172 14463",
            "SatelliteNumber": "54377",
            "Classification": "U",
            "LaunchYear": "22",
            "LaunchNumber": "161",
            "PieceOfLaunch": "A",
            "EpochYear": "24",
            "EpochDay": 281.22602243,
            "FirstDerivativeMeanMotion": 3.4e-07,
            "SecondDerivativeMeanMotion": "00000+0",
            "BSTAR": "00000+0",
            "SetNumber": "999",
            "Inclination": 64.7403,
            "RAAN": 213.2446,
            "Eccentricity": 0.0009942,
            "ArgumentOfPerigee": 220.5771,
            "MeanAnomaly": 139.3632,
            "MeanMotion": 2.13102172,
            "RevolutionNumber": "1446"
        },
        {
            "Name": "COSMOS 2569 (703K)",
            "Line1": "1 57517U 23114A   24281.24256302  .00000051  00000+0  00000+0 0  9991",
            "Line2": "2 57517  64.9690  93.5156 0008593 293.1293  66.8100  2.13104003  9097",
            "SatelliteNumber": "57517",
            "Classification": "U",
            "LaunchYear": "23",
            "LaunchNumber": "114",
            "PieceOfLaunch": "A",
            "EpochYear": "24",
            "EpochDay": 281.24256302,
            "FirstDerivativeMeanMotion": 5.1e-07,
            "SecondDerivativeMeanMotion": "00000+0",
            "BSTAR": "00000+0",
            "SetNumber": "999",
            "Inclination": 64.969,
            "RAAN": 93.5156,
            "Eccentricity": 0.0008593,
            "ArgumentOfPerigee": 293.1293,
            "MeanAnomaly": 66.81,
            "MeanMotion": 2.13104003,
            "RevolutionNumber": "909"
        }
    ]
}